JILIN-1 GAOFEN 3A       
1 44312U 19032C   26068.74542089  .00016264  00000+0  55381-3 0  9993
2 44312  44.9746 183.2861 0002618 111.2900 248.8263 15.30271310372592
STARLINK-33785          
1 63516U 25071Z   26068.47656263  .00014022  00000+0  48481-3 0  9993
2 63516  53.1578 141.1297 0001157  97.0782 263.0351 15.30190164 52719
